IRIDIUM 112             
1 41925U 17003J   25037.77706242  .00000143  00000+0  43940-4 0  9995
2 41925  86.3964 295.3208 0001836  85.2196 274.9209 14.34218339422297
IRIDIUM 111             
1 41926U 17003K   25037.76437713  .00000251  00000+0  82411-4 0  9995
2 41926  86.3964 295.3858 0002239  86.3757 273.7695 14.34215566422242
IRIDIUM 113             
1 42803U 17039A   25037.74433056  .00000638  00000+0  22084-3 0  9991
2 42803  86.4038 169.2293 0001633 105.5268 254.6108 14.34213737400173
IRIDIUM 123             
1 42804U 17039B   25037.85558948  .00000067  00000+0  16927-4 0  9998
2 42804  86.3995 200.6045 0002160  96.2237 263.9205 14.34217886398950
IRIDIUM 120             
1 42805U 17039C   25037.87753769  .00000715  00000+0  24837-3 0  9997
2 42805  86.4023 169.0201 0002302  92.1997 267.9462 14.34219366400185
IRIDIUM 115             
1 42806U 17039D   25037.88839447  .00000269  00000+0  74078-4 0  9994
2 42806  86.4561 169.0752 0002556 103.3366 256.8120 14.43269753402826
IRIDIUM 118             
1 42807U 17039E   25037.95707018  .00000418  00000+0  14203-3 0  9990
2 42807  86.3995 200.5626 0002025  94.5014 265.6413 14.34219978398966
